OBJECT_NAME,OBJECT_ID,EPOCH,MEAN_MOTION,ECCENTRICITY,INCLINATION,RA_OF_ASC_NODE,ARG_OF_PERICENTER,MEAN_ANOMALY,EPHEMERIS_TYPE,CLASSIFICATION_TYPE,NORAD_CAT_ID,ELEMENT_SET_NO,REV_AT_EPOCH,BSTAR,MEAN_MOTION_DOT,MEAN_MOTION_DDOT
STARLINK-3100,2021-082Q,2026-06-09T02:18:00.531936,14.98334786,.0002841,70.0008,63.9807,272.6999,87.3835,0,U,49144,999,25967,.23619E-4,.189E-5,0
STARLINK-3119,2021-082R,2026-06-09T01:05:14.409888,14.98329817,.0003037,69.9996,24.1034,270.7446,89.3366,0,U,49145,999,26064,.66242E-4,.697E-5,0
STARLINK-3116,2021-082S,2026-06-09T02:47:06.379584,14.97605304,.0002392,70.0001,45.0244,260.7282,99.3606,0,U,49146,999,26129,-.15595E-2,-.18306E-3,0
STARLINK-3071,2021-082T,2026-06-09T01:23:15.754272,14.98335003,.0002923,69.9997,24.0891,268.3616,91.7208,0,U,49147,999,26065,.6076E-4,.632E-5,0
STARLINK-3048,2021-082U,2026-06-09T02:35:05.152128,14.97522879,.0002308,70.0001,45.0234,261.5385,98.5512,0,U,49148,999,26013,.63301E-4,.648E-5,0
STARLINK-3102,2021-082X,2026-06-09T00:53:13.294752,14.98350648,.0003037,69.9998,24.1315,267.7601,92.3210,0,U,49151,999,26184,-.58532E-3,-.7074E-4,0
STARLINK-3072,2021-082Z,2026-06-09T00:41:12.800832,14.98329787,.0002486,70.0002,24.1588,262.3075,97.7802,0,U,49153,999,26185,.42183E-5,-.43E-6,0
STARLINK-3068,2021-082AA,2026-06-09T02:29:05.074080,14.97547933,.0002334,69.9999,45.0377,270.0138,90.0753,0,U,49154,999,26121,-.66247E-3,-.783E-4,0
STARLINK-3060,2021-082AB,2026-06-09T00:35:11.688576,14.98333731,.0002926,70.0005,24.1610,268.1654,91.9170,0,U,49155,999,26172,.73449E-4,.784E-5,0
STARLINK-3085,2021-082AC,2026-06-09T00:05:09.295584,14.98332708,.000286,70.0001,24.2152,270.4098,89.6734,0,U,49156,999,26172,-.20695E-5,-.118E-5,0
STARLINK-3051,2021-082AD,2026-06-09T01:27:08.240256,15.05598273,.0002721,69.9984,38.9525,174.7007,185.4185,0,U,49157,999,26138,.38128E-3,.5414E-4,0
STARLINK-3083,2021-082AE,2026-06-09T01:17:53.210112,15.76391170,.0001996,69.9620,276.2163,272.3394,87.7577,0,U,49158,999,26439,.4489E-3,.71449E-3,0
STARLINK-3056,2021-082AF,2026-06-09T02:00:00.691776,14.98321214,.0003126,70.0002,64.0228,268.3094,91.7707,0,U,49159,999,26076,-.57885E-4,-.783E-5,0
STARLINK-3095,2021-082AG,2026-06-09T01:41:57.524352,14.98331513,.0002894,70.0003,64.0360,266.7484,93.3344,0,U,49160,999,26073,.23637E-4,.189E-5,0
STARLINK-3080,2021-082AH,2026-06-09T01:47:59.661312,14.98318371,.0002925,70.0001,64.0210,263.6352,96.4474,0,U,49161,999,26074,.29099E-4,.254E-5,0
STARLINK-3088,2021-082AK,2026-06-09T02:11:02.622048,14.97520724,.00029,70.0002,45.0801,272.5375,87.5451,0,U,49163,999,26129,.22272E-4,.168E-5,0
STARLINK-3106,2021-082AL,2026-06-09T02:23:40.989408,14.98332258,.0003165,69.9998,43.9783,269.1591,90.9205,0,U,49164,999,26132,.83804E-4,.907E-5,0
STARLINK-3052,2021-082AM,2026-06-09T01:35:57.340032,14.98336181,.0002842,69.9997,64.0775,269.1353,90.9480,0,U,49165,999,26086,-.67313E-4,-.896E-5,0
STARLINK-3089,2021-082AN,2026-06-09T02:05:01.628160,14.97522155,.0002998,69.9996,45.0935,267.4528,92.6288,0,U,49166,999,26133,.19524E-4,.136E-5,0
STARLINK-3054,2021-082AP,2026-06-09T03:00:02.674080,14.98347717,.0003225,70.0000,63.9099,265.2471,94.8319,0,U,49167,999,26087,.18507E-3,.2117E-4,0
STARLINK-3046,2021-082AR,2026-06-09T02:17:40.631424,14.98331059,.0002904,69.9999,44.0004,269.5263,90.5564,0,U,49169,999,26016,.2679E-4,.227E-5,0
STARLINK-3107,2021-082AT,2026-06-09T02:47:05.085312,15.14312513,.0003855,69.9932,52.2312,179.4393,180.6779,0,U,49171,999,26112,.10718E-2,.1962E-3,0
STARLINK-3045,2021-082AV,2026-06-09T01:59:39.148800,14.98329572,.0002706,69.9996,44.0148,269.4137,90.6712,0,U,49173,999,26016,.30996E-5,-.56E-6,0
STARLINK-3087,2021-082AX,2026-06-09T01:11:58.746336,14.97532733,.0003041,69.9999,45.3189,273.5402,86.5408,0,U,49175,999,26012,.20094E-4,.143E-5,0
STARLINK-3069,2021-082AY,2026-06-09T00:47:13.271136,14.98325282,.0002996,70.0001,24.1446,272.6362,87.4454,0,U,49176,999,26064,.35523E-4,.331E-5,0
STARLINK-3103,2021-082AZ,2026-06-09T01:17:15.772992,14.98330271,.0003027,69.9994,24.1043,271.6887,88.3925,0,U,49177,999,26184,-.23715E-4,-.376E-5,0
STARLINK-3086,2021-082BA,2026-06-09T01:53:58.603200,14.98332050,.000273,70.0004,64.0201,267.1762,92.9084,0,U,49178,999,26082,.70297E-4,.746E-5,0
STARLINK-3043,2021-082BB,2026-06-09T00:59:14.020800,14.98332062,.0002631,69.9997,24.1182,266.3410,93.7448,0,U,49179,999,26064,.46311E-4,.46E-5,0
STARLINK-3059,2021-082BD,2026-06-09T03:06:05.408928,14.98360964,.000275,70.0001,63.9075,278.8543,81.2305,0,U,49181,999,26086,-.84778E-3,-.10202E-3,0
ONEWEB-0292,2021-083A,2026-06-09T04:00:20.738880,13.13469743,.000197,87.8939,321.8362,91.1678,268.9677,0,U,49186,999,22987,-.73929E-3,-.257E-5,0
