STARLINK-3100           
1 49144U 21082Q   26160.09583949  .00000189  00000+0  23619-4 0  9999
2 49144  70.0008  63.9807 0002841 272.6999  87.3835 14.98334786259677
STARLINK-3119           
1 49145U 21082R   26160.04530567  .00000697  00000+0  66242-4 0  9996
2 49145  69.9996  24.1034 0003037 270.7446  89.3366 14.98329817260645
STARLINK-3116           
1 49146U 21082S   26160.11604606 -.00018306  00000+0 -15595-2 0  9992
2 49146  70.0001  45.0244 0002392 260.7282  99.3606 14.97605304261298
STARLINK-3071           
1 49147U 21082T   26160.05782123  .00000632  00000+0  60760-4 0  9994
2 49147  69.9997  24.0891 0002923 268.3616  91.7208 14.98335003260650
STARLINK-3048           
1 49148U 21082U   26160.10769852  .00000648  00000+0  63301-4 0  9996
2 49148  70.0001  45.0234 0002308 261.5385  98.5512 14.97522879260133
STARLINK-3102           
1 49151U 21082X   26160.03695943 -.00007074  00000+0 -58532-3 0  9992
2 49151  69.9998  24.1315 0003037 267.7601  92.3210 14.98350648261846
STARLINK-3072           
1 49153U 21082Z   26160.02862038 -.00000043  00000+0  42183-5 0  9999
2 49153  70.0002  24.1588 0002486 262.3075  97.7802 14.98329787261859
STARLINK-3068           
1 49154U 21082AA  26160.10353095 -.00007830  00000+0 -66247-3 0  9994
2 49154  69.9999  45.0377 0002334 270.0138  90.0753 14.97547933261213
STARLINK-3060           
1 49155U 21082AB  26160.02444084  .00000784  00000+0  73449-4 0  9997
2 49155  70.0005  24.1610 0002926 268.1654  91.9170 14.98333731261720
STARLINK-3085           
1 49156U 21082AC  26160.00357981 -.00000118  00000+0 -20695-5 0  9994
2 49156  70.0001  24.2152 0002860 270.4098  89.6734 14.98332708261727
STARLINK-3051           
1 49157U 21082AD  26160.06051204  .00005414  00000+0  38128-3 0  9990
2 49157  69.9984  38.9525 0002721 174.7007 185.4185 15.05598273261380
STARLINK-3083           
1 49158U 21082AE  26160.05408808  .00071449  00000+0  44890-3 0  9990
2 49158  69.9620 276.2163 0001996 272.3394  87.7577 15.76391170264398
STARLINK-3056           
1 49159U 21082AF  26160.08334134 -.00000783  00000+0 -57885-4 0  9998
2 49159  70.0002  64.0228 0003126 268.3094  91.7707 14.98321214260762
STARLINK-3095           
1 49160U 21082AG  26160.07080468  .00000189  00000+0  23637-4 0  9993
2 49160  70.0003  64.0360 0002894 266.7484  93.3344 14.98331513260733
STARLINK-3080           
1 49161U 21082AH  26160.07499608  .00000254  00000+0  29099-4 0  9995
2 49161  70.0001  64.0210 0002925 263.6352  96.4474 14.98318371260747
STARLINK-3088           
1 49163U 21082AK  26160.09100257  .00000168  00000+0  22272-4 0  9998
2 49163  70.0002  45.0801 0002900 272.5375  87.5451 14.97520724261295
STARLINK-3106           
1 49164U 21082AL  26160.09977997  .00000907  00000+0  83804-4 0  9991
2 49164  69.9998  43.9783 0003165 269.1591  90.9205 14.98332258261322
STARLINK-3052           
1 49165U 21082AM  26160.06663588 -.00000896  00000+0 -67313-4 0  9993
2 49165  69.9997  64.0775 0002842 269.1353  90.9480 14.98336181260866
STARLINK-3089           
1 49166U 21082AN  26160.08682440  .00000136  00000+0  19524-4 0  9990
2 49166  69.9996  45.0935 0002998 267.4528  92.6288 14.97522155261335
STARLINK-3054           
1 49167U 21082AP  26160.12503095  .00002117  00000+0  18507-3 0  9994
2 49167  70.0000  63.9099 0003225 265.2471  94.8319 14.98347717260879
STARLINK-3046           
1 49169U 21082AR  26160.09560916  .00000227  00000+0  26790-4 0  9991
2 49169  69.9999  44.0004 0002904 269.5263  90.5564 14.98331059260169
STARLINK-3107           
1 49171U 21082AT  26160.11603108  .00019620  00000+0  10718-2 0  9996
2 49171  69.9932  52.2312 0003855 179.4393 180.6779 15.14312513261120
STARLINK-3045           
1 49173U 21082AV  26160.08309200 -.00000056  00000+0  30996-5 0  9997
2 49173  69.9996  44.0148 0002706 269.4137  90.6712 14.98329572260162
STARLINK-3087           
1 49175U 21082AX  26160.04998549  .00000143  00000+0  20094-4 0  9998
2 49175  69.9999  45.3189 0003041 273.5402  86.5408 14.97532733260126
STARLINK-3069           
1 49176U 21082AY  26160.03279249  .00000331  00000+0  35523-4 0  9999
2 49176  70.0001  24.1446 0002996 272.6362  87.4454 14.98325282260646
STARLINK-3103           
1 49177U 21082AZ  26160.05365478 -.00000376  00000+0 -23715-4 0  9993
2 49177  69.9994  24.1043 0003027 271.6887  88.3925 14.98330271261845
STARLINK-3086           
1 49178U 21082BA  26160.07915050  .00000746  00000+0  70297-4 0  9999
2 49178  70.0004  64.0201 0002730 267.1762  92.9084 14.98332050260823
STARLINK-3043           
1 49179U 21082BB  26160.04113450  .00000460  00000+0  46311-4 0  9994
2 49179  69.9997  24.1182 0002631 266.3410  93.7448 14.98332062260644
STARLINK-3059           
1 49181U 21082BD  26160.12922927 -.00010202  00000+0 -84778-3 0  9998
2 49181  70.0001  63.9075 0002750 278.8543  81.2305 14.98360964260865
ONEWEB-0292             
1 49186U 21083A   26160.16690670 -.00000257  00000+0 -73929-3 0  9990
2 49186  87.8939 321.8362 0001970  91.1678 268.9677 13.13469743229872
